Lat,Lon,Historic,Name,Address,Region,PhotoURL
41.9936737,21.433319,monument,Pitu Guli,11-ti Oktomvri 1111 Skopje North Macedonia,Skopje,https://mk.wikipedia.org/wiki/%D0%A1%D0%BF%D0%BE%D0%BC%D0%B5%D0%BD%D0%B8%D0%BA_%D0%BD%D0%B0_%D0%9F%D0%B8%D1%82%D1%83_%D0%93%D1%83%D0%BB%D0%B8_%28%D0%A1%D0%BA%D0%BE%D0%BF%D1%98%D0%B5%29#/media/%D0%9F%D0%BE%D0%B4%D0%B0%D1%82%D0%BE%D1%82%D0%B5%D0%BA%D0%B0:PituGuliSkopje9.JPG
42.0032812,21.4233737,monument,Goce Delchev,Naum Naumovski Borche 1111 Skopje North Macedonia,Skopje,https://upload.wikimedia.org/wikipedia/commons/thumb/4/45/Spomenik_na_Goce_Del%C4%8Dev_park_%2811%29.JPG/2736px-Spomenik_na_Goce_Del%C4%8Dev_park_%2811%29.JPG
42.0008716,21.4338778,city_gate,Vlez na Skopskoto kale,Sv. Prohor Pchinski 1111 Skopje North Macedonia,Skopje,https://tourguide.com.mk/wp-content/uploads/%D0%BA1.jpg
42.0195738,20.960153,ruins,Tetovsko Kale,Vukasin Simovski 1200 Tetovo North Macedonia,Tetovo,https://upload.wikimedia.org/wikipedia/commons/d/dc/%D0%A2%D0%B5%D1%82%D0%BE%D0%B2%D1%81%D0%BA%D0%BE_%D0%9A%D0%B0%D0%BB%D0%B5_%2853%29.JPG
41.4325212,22.0228463,monument,Kosturnica,Disanska 1430 Kavadarci North Macedonia,Kavadarci,https://upload.wikimedia.org/wikipedia/commons/thumb/7/7e/The_ossuary_monument_in_Kavadarci.jpg/1280px-The_ossuary_monument_in_Kavadarci.jpg
41.1155576,20.7914836,archaeological_site,Lihnid,Kuzman Kapidan 6000 Ohrid North Macedonia,Ohrid,https://mk.wikipedia.org/wiki/%D0%9B%D0%B8%D1%85%D0%BD%D0%B8%D0%B4#/media/%D0%9F%D0%BE%D0%B4%D0%B0%D1%82%D0%BE%D1%82%D0%B5%D0%BA%D0%B0:Ohrid_amphitheatre.jpg
41.3377228,21.257898,monument,Mechkin Kamen,Unnamed road Krushevo North Macedonia,Krushevo,https://mymacedoniablog.files.wordpress.com/2019/03/176-krusevo-meckin-kamen.jpg
41.3880768,21.2273776,monument,Sliva,Unnamed road Krushevo North Macedonia,Krushevo,https://upload.wikimedia.org/wikipedia/commons/d/dc/Sliva_Monument%2C_Krusevo.jpg
41.9188903,22.4069917,monument,Spomenik na slobodata,Kirili i Metodij 2300 Kochani North Macedonia,Kochani,https://mk.wikipedia.org/wiki/%D0%A1%D0%BF%D0%BE%D0%BC%D0%B5%D0%BD%D0%B8%D0%BA_%D0%BD%D0%B0_%D1%81%D0%BB%D0%BE%D0%B1%D0%BE%D0%B4%D0%B0%D1%82%D0%B0_%28%D0%9A%D0%BE%D1%87%D0%B0%D0%BD%D0%B8%29#/media/%D0%9F%D0%BE%D0%B4%D0%B0%D1%82%D0%BE%D1%82%D0%B5%D0%BA%D0%B0:Spomenik_kocani.JPG
42.2916094,22.3507979,monument,WWII Bitka - 17ta Makedonska brigada protiv bugarska armija,R2250 Dobrovnica North Macedonia,Dobrovnica,https://lh5.googleusercontent.com/p/AF1QipMYTdkLMIhkHeOdR859PlFnn860H7s8vAQweO45=w408-h544-k-no
41.1776616,20.679835,monument,Spomenik na Revolucijata,Marshal Tito 6330 Struga North Macedonia,Struga,https://upload.wikimedia.org/wikipedia/commons/thumb/0/00/Monument_to_the_Revolution_in_Struga_%283%29.JPG/1280px-Monument_to_the_Revolution_in_Struga_%283%29.JPG
41.9959035,21.4314474,monument,Aleksandar Makedonski,Plosthad Makedonija 1111 Skopje North Macedonia,Skopje,https://images.pexels.com/photos/4616602/pexels-photo-4616602.jpeg
42.0586697,21.3527926,archaeological_site,Rimska crkva,Majka Tereza 1060 Orman North Macedonia,Orman,https://upload.wikimedia.org/wikipedia/commons/thumb/5/57/%D0%A6%D1%80%D0%BA%D0%B2%D0%B0_%E2%80%9E40_%D0%BC%D0%B0%D1%87%D0%B5%D0%BD%D0%B8%D1%86%D0%B8%E2%80%9C_-_%D0%9E%D1%80%D0%BC%D0%B0%D0%BD.jpg/800px-%D0%A6%D1%80%D0%BA%D0%B2%D0%B0_%E2%80%9E40_%D0%BC%D0%B0%D1%87%D0%B5%D0%BD%D0%B8%D1%86%D0%B8%E2%80%9C_-_%D0%9E%D1%80%D0%BC%D0%B0%D0%BD.jpg
42.0843452,21.3548716,archaeological_site,Davina Kula,A4 Gluvo North Macedonia,Gluvo,https://upload.wikimedia.org/wikipedia/commons/thumb/d/da/%D0%94%D0%B0%D0%B2%D0%B8%D0%BD%D0%B0_%D0%9A%D1%83%D0%BB%D0%B0_03.jpg/1200px-%D0%94%D0%B0%D0%B2%D0%B8%D0%BD%D0%B0_%D0%9A%D1%83%D0%BB%D0%B0_03.jpg
42.0587494,21.2786993,archaeological_site,Golema Kula - Kuchkovo,Ulica 1 1060 Gorno Svilare North Macedonia,Gorno Svilare,https://upload.wikimedia.org/wikipedia/commons/thumb/7/7c/%D0%9F%D0%BE%D0%B3%D0%BB%D0%B5%D0%B4_%D0%BD%D0%B0_%D0%9A%D1%83%D1%87%D0%BA%D0%BE%D0%B2%D0%BE.jpg/1920px-%D0%9F%D0%BE%D0%B3%D0%BB%D0%B5%D0%B4_%D0%BD%D0%B0_%D0%9A%D1%83%D1%87%D0%BA%D0%BE%D0%B2%D0%BE.jpg
42.0585741,21.2844339,archaeological_site,Mala Kula - Kuchkovo,Ulica 103 Kuchkovo North Macedonia,Kuchkovo,https://upload.wikimedia.org/wikipedia/commons/thumb/7/7c/%D0%9F%D0%BE%D0%B3%D0%BB%D0%B5%D0%B4_%D0%BD%D0%B0_%D0%9A%D1%83%D1%87%D0%BA%D0%BE%D0%B2%D0%BE.jpg/1920px-%D0%9F%D0%BE%D0%B3%D0%BB%D0%B5%D0%B4_%D0%BD%D0%B0_%D0%9A%D1%83%D1%87%D0%BA%D0%BE%D0%B2%D0%BE.jpg
42.1355189,21.7200501,monument,Zena,Ivo Lola Ribar 1300 Kumanovo North Macedonia,Kumanovo,https://marh.mk/wp-content/uploads/2019/07/1-.jpg
42.0766913,21.398848,archaeological_site,Gradiste kaj s.Brazda,R2239 Brazda North Macedonia,Brazda,https://lh5.googleusercontent.com/p/AF1QipOaze80tB7T765NC_W_j3t5Yx00Yg63fpwQrRxM=w424-h240-k-no
41.9505936,21.2991931,monument,Manastir Sv. Andrej,Matka North Macedonia,Matka,https://upload.wikimedia.org/wikipedia/commons/0/07/St.andrea_crop.jpg
42.0017233,21.4617772,monument,Filip Vtori,Ploshtad Avtokomanda 1001 Skopje North Macedonia,Skopje,https://upload.wikimedia.org/wikipedia/commons/thumb/1/14/%D0%A1%D0%BF%D0%BE%D0%BC%D0%B5%D0%BD%D0%B8%D0%BA_%D0%BD%D0%B0_%D0%A4%D0%B8%D0%BB%D0%B8%D0%BF_%28%D0%A1%D0%BA%D0%BE%D0%BF%D1%98%D0%B5_-_%D0%90%D0%B2%D1%82%D0%BE%D0%BA%D0%BE%D0%BC%D0%B0%D0%BD%D0%B4%D0%B0%29.jpg/1280px-%D0%A1%D0%BF%D0%BE%D0%BC%D0%B5%D0%BD%D0%B8%D0%BA_%D0%BD%D0%B0_%D0%A4%D0%B8%D0%BB%D0%B8%D0%BF_%28%D0%A1%D0%BA%D0%BE%D0%BF%D1%98%D0%B5_-_%D0%90%D0%B2%D1%82%D0%BE%D0%BA%D0%BE%D0%BC%D0%B0%D0%BD%D0%B4%D0%B0%29.jpg
41.9984602,21.4349949,memorial,Filip II Makedonski,Ploshtad Karposhovo vostanie 1111 Skopje North Macedonia,Skopje,https://upload.wikimedia.org/wikipedia/commons/thumb/9/96/Karposh_memory_table_Skopje.JPG/1280px-Karposh_memory_table_Skopje.JPG
41.9983057,21.4254968,memorial,Sv. Kliment Ohridski,Bulevar Sveti Kliment Ohridski 1111 Skopje North Macedonia,Skopje,https://www.ohridnews.com/wp-content/uploads/2021/12/263871082_958007774923775_9199530904637826624_n.png
41.9993163,21.437162,memorial,Skenderbeg,Ploshtad Skenderbeg 1111 Skopje North Macedonia,Skopje,https://upload.wikimedia.org/wikipedia/commons/thumb/2/28/Skanderbeg_Monument_in_Skopje.JPG/1280px-Skanderbeg_Monument_in_Skopje.JPG
40.8570205,21.1195933,monument,Markova Noga,R1308 Dolno Dupeni North Macedonia,Dolno Dupeni,https://photos.wikimapia.org/p/00/05/72/22/92_big.jpg
42.1706665,21.809838,archaeological_site,Kostoperska Karpa,A2 Mlado Nagorichane North Macedonia,Mlado Nagorichane,https://journeymacedonia.com/wp-content/gallery/scn_kostoperski_rid/mKostoperski-Rid-091607-006.JPG
42.2633818,21.953118,archaeological_site,Kokino,R2244 Kokino North Macedonia,Kokino,https://upload.wikimedia.org/wikipedia/commons/thumb/c/c5/Megalithic_Observatory_Kokino.jpg/1024px-Megalithic_Observatory_Kokino.jpg
42.1355778,21.7194275,monument,Josip Broz - Tito,Ivo Lola Ribar 1300 Kumanovo North Macedonia,Kumanovo,https://visitkumanovo.files.wordpress.com/2015/08/tito02.jpg
41.4094203,22.2541295,ruins,Markov Grad,A1 1442 Koreshnica North Macedonia,Koreshnica,https://mymacedoniablog.files.wordpress.com/2022/05/dsc06340-brazda-archeo-park-markov-kamen-davina-kula-hike.jpg?w=1024
42.2782511,21.8500367,memorial,Memorijalen centar ASNOM,R1207 Pelince North Macedonia,Pelince,https://upload.wikimedia.org/wikipedia/commons/thumb/c/ca/ASNOMmemorialcenterPelince-free.JPG/1280px-ASNOMmemorialcenterPelince-free.JPG
41.794932,20.9108574,monument,Sahat Kula,Nikola Parapunov 1230 Gostivar North Macedonia,Gostivar,https://upload.wikimedia.org/wikipedia/commons/thumb/8/82/Saat_kulata_vo_GV.JPG/800px-Saat_kulata_vo_GV.JPG
42.1068795,21.1545235,ruins,Orashko Kale,R2234 Nerashte North Macedonia,Nerashte,https://upload.wikimedia.org/wikipedia/commons/thumb/7/7c/%D0%9E%D1%80%D0%B0%D1%88%D0%BA%D0%BE_%D0%9A%D0%B0%D0%BB%D0%B5_02.jpg/1280px-%D0%9E%D1%80%D0%B0%D1%88%D0%BA%D0%BE_%D0%9A%D0%B0%D0%BB%D0%B5_02.jpg
41.5119269,20.9702432,monument,Saat kula,Jane Sandanski 6250 Kichevo North Macedonia,Kichevo,https://upload.wikimedia.org/wikipedia/commons/4/43/Saat_Kula_vo_Ki%C4%8Devo.jpg
41.7140782,21.7840512,monument,Saat kula,8-mi Septemvri 1400 Veles North Macedonia,Veles,https://upload.wikimedia.org/wikipedia/commons/thumb/1/1b/Clock_tower_%28Veles%29_X2.JPG/800px-Clock_tower_%28Veles%29_X2.JPG
41.2775784,22.4937679,archaeological_site,Isar / Idomenae,R1401 2463 Marvinci North Macedonia,Marvinci,https://upload.wikimedia.org/wikipedia/commons/thumb/c/c6/Isar_Marvinci.jpg/1280px-Isar_Marvinci.jpg
42.1346962,21.7192303,monument,Kude sat,Tane Georgiev 1300 Kumanovo North Macedonia,Kumanovo,https://www.mthe.gov.sl/Photo/News/news-noImage.jpg
41.3451182,21.5519842,monument,Naroden Heroj Kuzman Josifoski-Pitu,Metodija Andonov - Chento 7500 Prilep North Macedonia,Prilep,https://upload.wikimedia.org/wikipedia/commons/d/dc/%D0%A1%D0%BF%D0%BE%D0%BC%D0%B5%D0%BD%D0%B8%D0%BA_%D0%BD%D0%B0_%D0%9A%D1%83%D0%B7%D0%BC%D0%B0%D0%BD_%D0%88%D0%BE%D1%81%D0%B8%D1%84%D0%BE%D0%B2%D1%81%D0%BA%D0%B8_%D0%9F%D0%B8%D1%82%D1%83_%D0%B2%D0%BE_%D0%9F%D1%80%D0%B8%D0%BB%D0%B5%D0%BF_%283%29.JPG
41.3451518,21.554267,monument,Pece Atanasoski,Borka Taleski-Modernoto 7500 Prilep North Macedonia,Prilep,https://upload.wikimedia.org/wikipedia/commons/thumb/7/79/Prilep%2C_Macedonia_%28FYROM%29_-_panoramio_%289%29.jpg/1280px-Prilep%2C_Macedonia_%28FYROM%29_-_panoramio_%289%29.jpg
41.3452617,21.5522173,monument,Gjorche Petrov,Metodija Andonov - Chento 7500 Prilep North Macedonia,Prilep,https://upload.wikimedia.org/wikipedia/commons/thumb/6/6f/Prilep%2C_Macedonia_%28FYROM%29_-_panoramio_%2814%29.jpg/640px-Prilep%2C_Macedonia_%28FYROM%29_-_panoramio_%2814%29.jpg
41.3748344,21.2480535,tomb,Pitu Guli,Gumenje 7550 Krushevo North Macedonia,Krushevo,https://photos.wikimapia.org/p/00/06/83/53/62_big.jpg
41.3748686,21.2482546,tomb,Toshe Proeski,Gumenje 7550 Krushevo North Macedonia,Krushevo,https://s.inyourpocket.com/gallery/244374.jpg
41.3736665,21.2463296,monument,Nikola Karev,Nikola Karev 7550 Krushevo North Macedonia,Krushevo,https://upload.wikimedia.org/wikipedia/commons/thumb/8/8a/Nikola_Karev_Denkmal_in_Krusevo%2C_Makedonien.JPG/1200px-Nikola_Karev_Denkmal_in_Krusevo%2C_Makedonien.JPG?20071223222107
41.024615,21.3368929,memorial,Stefan Naumov-Stiv,Makedonska Falanga 7000 Bitola North Macedonia,Bitola,https://www.porta3.mk/wp-content/uploads/2014/04/f102sdggdsdgsgdsgds0022.jpg
41.3649692,21.2497316,monument,Spomenik na Pitu Guli,Unnamed road Krushevo North Macedonia,Krushevo,https://dynamic-media-cdn.tripadvisor.com/media/photo-o/05/fd/b3/1e/getlstd-property-photo.jpg?w=800&h=-1&s=1
41.3653856,21.2484409,monument,Naum Naumoski-Borche,Kocha Milenku 7550 Krushevo North Macedonia,Krushevo,https://www.mthe.gov.sl/Photo/News/news-noImage.jpg
41.5516379,21.9751675,ruins,Rimski teatar,A1 1442 Gradsko North Macedonia,Gradsko,https://upload.wikimedia.org/wikipedia/commons/1/10/Stobi_theater.png
41.1458586,22.5001795,monument,Dva Konja,Bulevar Gevgelija 1480 Gevgelija North Macedonia,Gevgelija,https://photos.wikimapia.org/p/00/03/01/37/67_big.jpg
42.0836218,21.9862589,archaeological_site,Cocev Kamen,R29277 Shopsko Rudare North Macedonia,Shopsko Rudare,https://upload.wikimedia.org/wikipedia/commons/0/06/Cocev_kamen.jpg
40.9765203,20.9119981,monument,Prespansko Sovetuvanje,R1307 Oteshevo North Macedonia,Oteshevo,"https://static.wixstatic.com/media/e73a14_0db1a255519b47a48151e988238c1193~mv2.jpg/v1/fill/w_1275,h_717,al_c,q_85,usm_0.66_1.00_0.01,enc_auto/e73a14_0db1a255519b47a48151e988238c1193~mv2.jpg"
41.3475544,21.5564074,monument,Karpalak,Gjorgji Delchev-Goce 7500 Prilep North Macedonia,Prilep,https://i.pinimg.com/originals/2c/7b/fc/2c7bfc7a2df7676d782516ac484a7ed0.jpg
42.1491368,21.7853235,memorial,Zebrnjak,R2237 1300 Mlado Nagorichane North Macedonia,Mlado Nagorichane,https://photos.wikimapia.org/p/00/05/03/68/18_big.jpg
41.1126936,20.7995376,monument,Sveti Kliment Ohridski,Makedonski prosvetiteli 6000 Ohrid North Macedonia,Ohrid,https://dynamic-media-cdn.tripadvisor.com/media/photo-o/0d/3d/60/1c/2.jpg?w=1200&h=-1&s=1
41.1120476,20.799994,monument,Sveti Kiril i Metodij,Makedonski prosvetiteli 6000 Ohrid North Macedonia,Ohrid,https://dynamic-media-cdn.tripadvisor.com/media/photo-o/09/3e/d4/41/monuments-of-saints-cyril.jpg?w=1200&h=1200&s=1
41.1122955,20.7990226,monument,Sveti Naum Ohridski Chudotvorec,Car Samoil 6000 Ohrid North Macedonia,Ohrid,https://photos.wikimapia.org/p/00/05/74/36/14_big.jpg
41.1124606,20.7977703,city_gate,Dolna Porta,Car Samoil 6000 Ohrid North Macedonia,Ohrid,https://media.istockphoto.com/id/1251510816/photo/lower-gate-square-in-ohrid-macedonia.jpg?s=170667a&w=0&k=20&c=gaxs3LGMXKOtudKFbNlVgBQBhSCCSWGFlwj7cq1jfmU=
42.0853984,21.9627449,archaeological_site,Machka kamen,R29277 Konjuh North Macedonia,Konjuh,https://lh5.googleusercontent.com/p/AF1QipNacLNWFAgbFV56W7UlUnM3omvy5nnzMTI27XQz=w408-h306-k-no
41.4182291,21.0770931,monument,Hristo Uzunov,R.I.P. Hristo Uzunov Cer North Macedonia,Cer,https://upload.wikimedia.org/wikipedia/commons/thumb/3/37/%D0%92%D0%B8%D0%BA%D0%B8%D0%B5%D0%BA%D1%81%D0%BF%D0%B5%D0%B4%D0%B8%D1%86%D0%B8%D1%98%D0%B0_%D0%B2%D0%BE_%D0%9A%D0%BE%D0%BF%D0%B0%D1%87%D0%BA%D0%B0_12.jpg/1280px-%D0%92%D0%B8%D0%BA%D0%B8%D0%B5%D0%BA%D1%81%D0%BF%D0%B5%D0%B4%D0%B8%D1%86%D0%B8%D1%98%D0%B0_%D0%B2%D0%BE_%D0%9A%D0%BE%D0%BF%D0%B0%D1%87%D0%BA%D0%B0_12.jpg
41.0596796,20.8135106,wayside_shrine,Sv. Nikola,Racha - Konjsko 6000 Konjsko North Macedonia,Konjsko,https://lh5.googleusercontent.com/p/AF1QipOkFG0sSDp3fvxaznn-A0FDYY4FIOMGk2SrC-gp=w426-h240-k-no
41.9062629,20.9636151,monument,Spomenik na zhrtvi od NOB,R2233 1213 Radiovce North Macedonia,Radiovce,https://upload.wikimedia.org/wikipedia/commons/thumb/1/13/Radiovce_monument.jpg/1280px-Radiovce_monument.jpg
41.3460556,21.5524989,monument,Aleksandar Makedonski,Ploshtad Aleksandrija 7500 Prilep North Macedonia,Prilep,https://upload.wikimedia.org/wikipedia/commons/thumb/d/de/Prilep_Aleksander.jpg/1170px-Prilep_Aleksander.jpg
41.3462544,21.5528281,monument,Metodija Andonov-Chento,Ploshtad Aleksandrija 7500 Prilep North Macedonia,Prilep,https://upload.wikimedia.org/wikipedia/commons/thumb/e/e9/Prilep_013.JPG/640px-Prilep_013.JPG
41.3462194,21.553243,monument,Sv. Nikola,Ploshtad Aleksandrija 7500 Prilep North Macedonia,Prilep,https://streetviewpixels-pa.googleapis.com/v1/thumbnail?panoid=Uj7LoC9m64bye_QWQ9B3WA&cb_client=search.gws-prod.gps&w=408&h=240&yaw=265.7562&pitch=0&thumbfov=100
41.822914,21.7360635,memorial,Masakr kaj Pusta Kula,R10113 Rudnik North Macedonia,Rudnik,https://upload.wikimedia.org/wikipedia/commons/4/4b/Spomenik_Pusta_Kula.jpg
41.3434323,21.5479723,monument,Karpalak 2001,Gjorgji Delchev-Goce 7500 Prilep North Macedonia,Prilep,https://photos.wikimapia.org/p/00/06/63/39/66_big.jpg
41.3341123,21.554646,monument,Kripta,Mogila na nepobedenite 7500 Prilep North Macedonia,Prilep,https://www.kathmanduandbeyond.com/wp-content/uploads/2017/06/Burial-Mound-of-the-Unbeaten-Prilep-Partisan-Necropolis-Park-of-the-Revolution-Prilep-Macedonia-1.jpg
41.345456,21.5548417,monument,Itar Pejo,Lazo Poposki 7500 Prilep North Macedonia,Prilep,https://upload.wikimedia.org/wikipedia/commons/thumb/6/67/Spomenik_i_%C4%8De%C5%A1ma_na_Itar_Pejo_-_Prilep_02.JPG/800px-Spomenik_i_%C4%8De%C5%A1ma_na_Itar_Pejo_-_Prilep_02.JPG
41.975162,22.8187714,monument,Dedo Jakim - Mill,A3 2320 Dzvegor North Macedonia,Dzvegor,https://www.mthe.gov.sl/Photo/News/news-noImage.jpg
41.9769054,22.8193451,monument,Ilin Kamen,A3 2320 Dzvegor North Macedonia,Dzvegor,https://espreso.mk/wp-content/uploads/2021/11/i4.jpg
41.9668611,22.7768724,monument,Goce Delchev (Bista),Bulevar Makedonija 2320 Delchevo North Macedonia,Delchevo,https://encrypted-tbn3.gstatic.com/images?q=tbn:ANd9GcRlWtkvjEijf66H1ZQUci_De_JZsmh34jV-I6E8pfi9GGq_DAC-
41.9643843,22.7742882,monument,Goce Delchev,Kej na Slobodata 2320 Delchevo North Macedonia,Delchevo,https://kanal5.com.mk/uploads/thumbs/407608.jpg
41.9653801,22.7716387,monument,Spomenik na padnati borci vo NOB,Marshal Tito Delchevo North Macedonia,Delchevo,https://upload.wikimedia.org/wikipedia/commons/thumb/4/4c/Partisanmonument-Delcevo.JPG/800px-Partisanmonument-Delcevo.JPG
41.9425359,22.7954411,monument,Kula,R1302 2320 Star Istevnik North Macedonia,Star Istevnik,https://lh5.googleusercontent.com/p/AF1QipM7skP-NbaGMidWNec1AVer5y-LonDyjZcdfG0V=w408-h725-k-no
41.9952169,21.426153,memorial,Josip Broz Tito,Dimitrie Chupovski 1000 Skopje North Macedonia,Skopje,https://upload.wikimedia.org/wikipedia/commons/thumb/2/2b/Skopje%2C_Republic_of_Macedonia_%28_High_School_%22Josip_Broz_TITO_%22_%29%2C_%D0%A1%D0%BA%D0%BE%D0%BF%D1%98%D0%B5-%D0%A1%D0%BA%D0%BE%D0%BF%D1%99%D0%B5%2C_%D0%A0._%D0%9C%D0%B0%D0%BA%D0%B5%D0%B4%D0%BE%D0%BD%D0%B8%D1%98%D0%B0_%28_%D0%A1%D0%A3%D0%93%D0%A1_%22%D0%88%D0%BE%D1%81%D0%B8%D0%BF_%D0%91%D1%80%D0%BE%D0%B7_%D0%A2%D0%B8%D1%82%D0%BE%22_%29_-_panoramio.jpg/1200px-thumbnail.jpg?20170307233934
41.9682709,21.4313461,ruins,Markovi Kuli,R2138 1054 Skopje North Macedonia,Skopje,https://upload.wikimedia.org/wikipedia/commons/1/10/%D0%9C%D0%B0%D1%80%D0%BA%D0%BE%D0%B2%D0%BE_%D0%BA%D1%80%D1%83%D0%B2%D1%87%D0%B5-%D0%BA%D1%83%D0%BB%D0%B8_%28%D0%92%D0%BE%D0%B4%D0%BD%D0%BE%29_10.jpg
41.139367,22.5093733,monument,Leonid Jankov,Ilindenska 1480 Gevgelija North Macedonia,Gevgelija,https://lh5.googleusercontent.com/p/AF1QipN-61_oEie_NC2wJhc33YYUUQfI8Kvdz0do6hvs=w408-h610-k-no
41.9977079,21.4339766,memorial,Sv. Kiril i Metodij,Ploshtad Karposhovo vostanie 1111 Skopje North Macedonia,Skopje,https://upload.wikimedia.org/wikipedia/commons/thumb/1/1c/Kiril_and_Metodij_-_Skopje.JPG/675px-Kiril_and_Metodij_-_Skopje.JPG
41.9975624,21.4341509,memorial,Sv. Kliment Ohridski i Naum Ohridski Chudotvorec,Ploshtad Karposhovo vostanie 1111 Skopje North Macedonia,Skopje,https://live.staticflickr.com/65535/52592017471_d25cf94b57_z.jpg
41.9953917,21.4313414,memorial,Car Samoil,Ploshtad Makedonija 1000 Skopje North Macedonia,Skopje,https://thumbs.dreamstime.com/b/skopje-republic-macedonia-Car-samoil-samuil-statue-downtown-city-marble-monument-bulgarian-north-229931563.jpg
41.9964949,21.4321474,memorial,Dame Gruev,Ploshtad Makedonija 1111 Skopje North Macedonia,Skopje,https://upload.wikimedia.org/wikipedia/commons/thumb/c/cd/Dame_Gruev_monument_in_Skopje.JPG/800px-Dame_Gruev_monument_in_Skopje.JPG
41.9968799,21.4323054,memorial,Justinijan I,Ploshtad Makedonija 1111 Skopje North Macedonia,Skopje,https://upload.wikimedia.org/wikipedia/commons/thumb/a/ab/Monument_of_Iustinianus_I_%28Skopje%29.jpg/800px-Monument_of_Iustinianus_I_%28Skopje%29.jpg
41.9979046,21.4344182,memorial,Olimpija,Ploshtad Karposhovo vostanie 1111 Skopje North Macedonia,Skopje,https://upload.wikimedia.org/wikipedia/commons/8/87/Fountain_of_the_Mothers_of_Macedonia_%2843202731662%29.jpg
41.993303,21.4337226,monument,Prometej,11-ti Oktomvri 1111 Skopje North Macedonia,Skopje,https://novamakedonija.com.mk/wp-content/uploads/2019/03/prometej-banskoliev2.jpg
41.9834333,21.439106,monument,Todor Aleksandrov,Ivan Kozarov 1111 Skopje North Macedonia,Skopje,https://balkaninsight.com/wp-content/uploads/2012/06/todor-aleksandrov-1-by-sjm.jpg
41.986749,21.4369668,monument,Stara Rampa,Bulevar Makedonija 1111 Skopje North Macedonia,Skopje,https://streetviewpixels-pa.googleapis.com/v1/thumbnail?panoid=XH-jxWOVHuy7uQINeRlDDg&cb_client=search.gws-prod.gps&w=408&h=240&yaw=241.32887&pitch=0&thumbfov=100
41.9936684,21.4317487,monument,Begova kula,Dimitrie Chupovski 1111 Skopje North Macedonia,Skopje,https://upload.wikimedia.org/wikipedia/commons/thumb/4/44/Feudalna_Kula_Skopje_02.JPG/1280px-Feudalna_Kula_Skopje_02.JPG
41.4166941,22.7549207,monument,Goce Delchev,Unnamed road Monospitovo North Macedonia,Monospitovo,https://upload.wikimedia.org/wikipedia/commons/thumb/e/ea/%D0%A1%D1%82%D1%80%D1%83%D0%BC%D0%B8%D1%86%D0%B0_-_%D0%A0._%D0%9C%D0%B0%D0%BA%D0%B5%D0%B4%D0%BE%D0%BD%D0%B8%D1%98%D0%B0_%2C_Strumica_-_R._of_Macedonia_GOCE_DELCEV-DELCHEV_MONUMENT_%D0%A1%D0%9F%D0%9E%D0%9C%D0%95%D0%9D%D0%98%D0%9A_%D0%9D%D0%90_%D0%93%D0%9E%D0%A6%D0%95_%D0%94%D0%95%D0%9B%D0%A7%D0%95%D0%92_SPOMENIK_NA_GOCE_DELCEV_VO_STRUMICA_-_panoramio.jpg/1200px-thumbnail.jpg
41.3661079,21.6749495,memorial,Borka Taleski-Modernoto / Lazo Filipovski-Lavski,R1101 Pletvar North Macedonia,Pletvar,https://encrypted-tbn0.gstatic.com/images?q=tbn:ANd9GcSEQF0jfViOO9RSJ6RZ-YnZhb9DIC7rgZRIdfJgutcHVwE2Tm6VKZ0cZFRCc2V7w-_P5uI&usqp=CAU
40.9142149,20.7412554,memorial,Sveti Naum,R1301 Ljubanishta North Macedonia,Ljubanishta,https://photos.wikimapia.org/p/00/05/74/36/13_big.jpg
41.736405,22.1903758,monument,Zaginati Evrei,Kej Marshal Tito 2000 Shtip North Macedonia,Shtip,https://upload.wikimedia.org/wikipedia/commons/1/14/Monument_of_deported_Jews_in_%C5%A0tip_03.JPG
42.000853,21.4375046,place_of_worship,Mustafa-pashina dzhamija,Bitpazarska 1009 Skopje North Macedonia,Skopje,https://upload.wikimedia.org/wikipedia/commons/thumb/0/08/Murat_Pasha_Mosque_DSCF3699.jpg/1200px-Murat_Pasha_Mosque_DSCF3699.jpg
41.9130467,21.4333848,castle,Vila Varvarka,R1106 1050 Rakotinci North Macedonia,Rakotinci,https://www.mthe.gov.sl/Photo/News/news-noImage.jpg
41.9949279,21.4108745,monument,Jurij Gagarin,Jurij Gagarin 1020 Skopje North Macedonia,Skopje,https://upload.wikimedia.org/wikipedia/commons/a/a1/Karposh%2C_Skopje_1000%2C_Macedonia_%28FYROM%29_-_panoramio_%28142%29.jpg
41.9930188,21.4332009,monument,Nikola Karev,11-ti Oktomvri 1111 Skopje North Macedonia,Skopje,https://upload.wikimedia.org/wikipedia/commons/thumb/8/87/Skopje_capital_of_The_Republic_of_Macedonia_%2816274368576%29.jpg/800px-Skopje_capital_of_The_Republic_of_Macedonia_%2816274368576%29.jpg
42.0016804,21.4283664,monument,Vera Jocikj,Hadzhikonstantinov Djinot 1111 Skopje North Macedonia,Skopje,https://upload.wikimedia.org/wikipedia/commons/thumb/7/79/Spomenik_na_Vera_Jocik_02.JPG/600px-Spomenik_na_Vera_Jocik_02.JPG?20110710123549
41.3455416,21.5532375,monument,Marko Mrnjavchevikj,Metodija Andonov - Chento 7500 Prilep North Macedonia,Prilep,https://dynamic-media-cdn.tripadvisor.com/media/photo-o/16/1b/c8/80/photo0jpg.jpg?w=1200&h=-1&s=1
41.3450704,21.5505634,monument,Krume Kepeski,Ploshtad umetnost 7500 Prilep North Macedonia,Prilep,https://farm5.staticflickr.com/4414/36544682555_8a287187d3_b.jpg
41.3451329,21.5506707,monument,Blazhe Koneski,Ploshtad umetnost 7500 Prilep North Macedonia,Prilep,https://www.prilep.gov.mk/wp-content/uploads/2019/12/ELS_0172.jpg
41.3451792,21.5505581,monument,Marko Cepenkov,Ploshtad umetnost 7500 Prilep North Macedonia,Prilep,https://upload.wikimedia.org/wikipedia/commons/thumb/9/9b/Cepenkov_spomenik_vo_Prilep.JPG/600px-Cepenkov_spomenik_vo_Prilep.JPG?20110613181913
41.5130946,20.9663459,castle,Kitino Kale,Amit Chelopechanec 6250 Kichevo North Macedonia,Kichevo,https://upload.wikimedia.org/wikipedia/commons/thumb/b/b9/%D0%9A%D0%B8%D1%87%D0%B5%D0%B2%D1%81%D0%BA%D0%B0_%D0%A1%D0%BF%D0%BE%D0%BC%D0%B5%D0%BD_%D0%9A%D0%BE%D1%81%D1%82%D1%83%D1%80%D0%BD%D0%B8%D1%86%D0%B0_%281%29.JPG/640px-%D0%9A%D0%B8%D1%87%D0%B5%D0%B2%D1%81%D0%BA%D0%B0_%D0%A1%D0%BF%D0%BE%D0%BC%D0%B5%D0%BD_%D0%9A%D0%BE%D1%81%D1%82%D1%83%D1%80%D0%BD%D0%B8%D1%86%D0%B0_%281%29.JPG
41.2788101,20.7836677,memorial,Botun,A2 Botun North Macedonia,Botun,"https://static.wixstatic.com/media/e73a14_9a75e280166944dd9c18d2f0a71e6dd7~mv2.jpg/v1/fill/w_1191,h_666,al_c,q_85,usm_0.66_1.00_0.01,enc_auto/e73a14_9a75e280166944dd9c18d2f0a71e6dd7~mv2.jpg"
41.158263,22.5006786,monument,Spomenik na slobodata,R1102 1480 Mrzenci North Macedonia,Mrzenci,"https://static.wixstatic.com/media/e73a14_27fe0e6861bd4c47a55fae1c2dd8031a~mv2_d_3264_1836_s_2.jpg/v1/fill/w_1194,h_669,al_c,q_85,usm_0.66_1.00_0.01,enc_auto/e73a14_27fe0e6861bd4c47a55fae1c2dd8031a~mv2_d_3264_1836_s_2.jpg"
41.3738524,21.5025867,monument,Borecot,R1303 7513 Prilep North Macedonia,Prilep,https://www.prilep.gov.mk/wp-content/uploads/2018/11/3-noemvri-odbelezuvanje-opstina-prilep-34.jpg
41.1736526,20.6783749,monument,Sergej Esenin,Most na poezijata 6330 Struga North Macedonia,Struga,https://upload.wikimedia.org/wikipedia/commons/thumb/c/c6/Sergej_esenin_spomenik_vo_Struga.JPG/1200px-Sergej_esenin_spomenik_vo_Struga.JPG
42.0769461,22.1823517,monument,Emin-begova kula,Skopska Kratovo North Macedonia,Kratovo,https://upload.wikimedia.org/wikipedia/commons/thumb/8/87/%D0%95%D0%BC%D0%B8%D0%BD-%D0%B1%D0%B5%D0%B3%D0%BE%D0%B2%D0%B0_%D0%BA%D1%83%D0%BB%D0%B0.jpg/800px-%D0%95%D0%BC%D0%B8%D0%BD-%D0%B1%D0%B5%D0%B3%D0%BE%D0%B2%D0%B0_%D0%BA%D1%83%D0%BB%D0%B0.jpg
42.0768838,22.1826261,monument,Krsteva kula,Skopska Kratovo North Macedonia,Kratovo,https://upload.wikimedia.org/wikipedia/commons/thumb/c/c8/Kratovo_vo_2010_%2870%29.JPG/800px-Kratovo_vo_2010_%2870%29.JPG
41.1949939,22.6878453,monument,Solunski front (I svetska vojna),Marshal Tito 1487 Star Dojran North Macedonia,Star Dojran,https://www.cookstownwardead.co.uk/picc/pic00093.jpg
42.0768628,22.1822635,monument,Hadzhikostova kula,Josif Daskalov Kratovo North Macedonia,Kratovo,https://upload.wikimedia.org/wikipedia/commons/thumb/e/ef/Kratovo_vo_2010_%2869%29.JPG/800px-Kratovo_vo_2010_%2869%29.JPG
42.0792053,22.1818109,monument,Saat-kula,Brakja Miladinovi Kratovo North Macedonia,Kratovo,https://upload.wikimedia.org/wikipedia/commons/thumb/b/b1/%D0%A1%D0%B0%D0%B0%D1%82_%D0%BA%D1%83%D0%BB%D0%B0_%D0%B2%D0%BE_%D0%9A%D1%80%D0%B0%D1%82%D0%BE%D0%B2%D0%BE.JPG/1280px-%D0%A1%D0%B0%D0%B0%D1%82_%D0%BA%D1%83%D0%BB%D0%B0_%D0%B2%D0%BE_%D0%9A%D1%80%D0%B0%D1%82%D0%BE%D0%B2%D0%BE.JPG
42.0788289,22.1809805,monument,Zlatkovicheva kula,Goce Delchev Kratovo North Macedonia,Kratovo,https://upload.wikimedia.org/wikipedia/commons/thumb/d/d6/%D0%97%D0%BB%D0%B0%D1%82%D0%BA%D0%BE%D0%B2%D0%B0_%D0%9A%D1%83%D0%BB%D0%B0_%D0%9A%D1%80%D0%B0%D1%82%D0%BE%D0%B2%D0%BE.jpg/800px-%D0%97%D0%BB%D0%B0%D1%82%D0%BA%D0%BE%D0%B2%D0%B0_%D0%9A%D1%83%D0%BB%D0%B0_%D0%9A%D1%80%D0%B0%D1%82%D0%BE%D0%B2%D0%BE.jpg
42.0786957,22.1794714,monument,Simikjeva kula,Trajche Arsov Kratovo North Macedonia,Kratovo,https://upload.wikimedia.org/wikipedia/commons/thumb/9/99/Kratovo_vo_2010_%281%29.JPG/800px-Kratovo_vo_2010_%281%29.JPG
41.1142035,20.7958058,tomb,Grigor Prlichev,Kiril i Metodij 6000 Ohrid North Macedonia,Ohrid,https://photos.wikimapia.org/p/00/06/92/87/49_big.jpg
41.006774,21.3415263,place_of_worship,Sv. Troica,Pande Ilkovski 7000 Bitola North Macedonia,Bitola,https://upload.wikimedia.org/wikipedia/commons/thumb/9/9f/%D0%9F%D0%BE%D0%B3%D0%BB%D0%B5%D0%B4_%D0%BD%D0%B0_%D1%86%D1%80%D0%BA%D0%B2%D0%B0%D1%82%D0%B0_%E2%80%9E%D0%A1%D0%B2._%D0%A2%D1%80%D0%BE%D0%B8%D1%86%D0%B0%E2%80%9C_%D0%B2%D0%BE_%D0%91%D1%83%D0%BA%D0%BE%D0%B2%D1%81%D0%BA%D0%B8_%D0%9B%D0%B8%D0%B2%D0%B0%D0%B4%D0%B8_%281%29.jpg/1920px-%D0%9F%D0%BE%D0%B3%D0%BB%D0%B5%D0%B4_%D0%BD%D0%B0_%D1%86%D1%80%D0%BA%D0%B2%D0%B0%D1%82%D0%B0_%E2%80%9E%D0%A1%D0%B2._%D0%A2%D1%80%D0%BE%D0%B8%D1%86%D0%B0%E2%80%9C_%D0%B2%D0%BE_%D0%91%D1%83%D0%BA%D0%BE%D0%B2%D1%81%D0%BA%D0%B8_%D0%9B%D0%B8%D0%B2%D0%B0%D0%B4%D0%B8_%281%29.jpg
41.1755185,20.6781791,memorial,Jovo Stefanovski - Rile,Park na poezijata R1208 6330 Struga North Macedonia,Struga,https://photos.wikimapia.org/p/00/03/02/99/02_big.jpg
41.05924,20.8033957,place_of_worship,Sv. Blagoveshtenie,Metropol Hotel Dolno Konjsko North Macedonia,Dolno Konjsko,https://lh5.googleusercontent.com/p/AF1QipMEyWilZ6Ms4AyfnX8KX8UeaG-JZD9l7ab0zHIV=w426-h240-k-no
41.9963577,21.4323793,memorial,Goce Delchev,Ploshtad Makedonija 1111 Skopje North Macedonia,Skopje,https://upload.wikimedia.org/wikipedia/commons/thumb/9/9a/Goce_Del%C4%8Dev%2C_spomenik_u_Skoplju.JPG/800px-Goce_Del%C4%8Dev%2C_spomenik_u_Skoplju.JPG
42.1003011,21.9665342,archaeological_site,Konjuh,R29277 Konjuh North Macedonia,Konjuh,https://lh5.googleusercontent.com/p/AF1QipM7RVXGhB-jNtR6lpRm0M3gCj68_E3Lq_S324NX=w408-h266-k-no
42.0949995,21.9658672,ruins,Rotonda Konjuh,R29277 Konjuh North Macedonia,Konjuh,https://mymacedoniablog.files.wordpress.com/2019/03/dv-836-golemo-gradiste-rotunda.jpg?w=1024
42.0995746,21.9606298,place_of_worship,Bosko Chapel,R29277 Konjuh North Macedonia,Konjuh,https://www.mthe.gov.sl/Photo/News/news-noImage.jpg
41.7995125,22.289829,archaeological_site,Bargala,R2431 Radanje North Macedonia,Radanje,https://upload.wikimedia.org/wikipedia/commons/thumb/c/c9/Bargala_%287438552338%29.jpg/1280px-Bargala_%287438552338%29.jpg
41.3825161,22.7542141,archaeological_site,Roman Bathhouse,R1402 2434 Bansko North Macedonia,Bansko,https://upload.wikimedia.org/wikipedia/commons/f/f8/Roman_Bath_Bansko_RMacedonia.jpg
42.0169571,21.4434502,monument,Doma,Kemal Sejfulla 1009 Skopje North Macedonia,Skopje,https://www.mthe.gov.sl/Photo/News/news-noImage.jpg
41.9952759,21.4319995,memorial,Spomen plocha na Majka Tereza,11-ti Oktomvri 1000 Skopje North Macedonia,Skopje,https://visitmacedonia.eu/wp-content/uploads/2019/09/DSC_0186-1.jpg
41.1057278,20.8078335,memorial,Ard den Dolard,Kej Makedonija 6000 Ohrid North Macedonia,Ohrid,https://upload.wikimedia.org/wikipedia/commons/thumb/3/39/Dendoolaardohrid.JPG/1280px-Dendoolaardohrid.JPG
41.958616,21.4422187,castle,Rezidencijata Glavinov,Hristo Tatarchev 1000 Skopje North Macedonia,Skopje,https://www.mthe.gov.sl/Photo/News/news-noImage.jpg
41.9957136,21.4306041,memorial,Metodija Andonov - Chento,Maksim Gorki 1111 Skopje North Macedonia,Skopje,https://sdsm.org.mk/wp-content/uploads/2020/08/C60BF20B-177B-40AB-A9F4-00B538FEB84F.jpeg
41.7213441,22.6569551,memorial,Maleshevski (Maleshki) narodnoosloboditelen odred,Unnamed road Budinarci Berovo North Macedonia,Berovo,https://www.mthe.gov.sl/Photo/News/news-noImage.jpg
41.0043725,20.9282003,archaeological_site,Kale,Kale R1307 Shurlenci North Macedonia,Shurlenci,https://scontent.fskp4-2.fna.fbcdn.net/v/t31.18172-8/20935119_1553841894646052_4773869308583822982_o.jpg?_nc_cat=108&ccb=1-7&_nc_sid=4dc865&_nc_ohc=a8bsaJkDDCQAX8Ws7gj&_nc_ht=scontent.fskp4-2.fna&oh=00_AfB7caLNCDqqC1VJQ4vXbHq3bywFaLPj0_iQr5f_kw-RoQ&oe=659C2A8E
41.9856377,22.5905605,archaeological_site,Kalata,Kalata A3 Municipality of Makedonska Kamenica North Macedonia,Makedonska Kamenica,https://lh5.googleusercontent.com/p/AF1QipP5HuJtibRapMJ7XJ9TzdGfeUXZSuwIAmAN70QJ=w426-h240-k-no
41.6952366,21.628172,archaeological_site,Banjichko Kale,R2344 Drenovo North Macedonia,Drenovo,https://doma-gd.b-cdn.net/wp-content/uploads/2023/09/sto-krie-a-sto-otkriva-banjicko-kale-02.jpg
41.3747079,20.7630424,monument,Mirche Acev Bataljon,A2 Izdeglavje North Macedonia,Izdeglavje,https://tvm.mk/wp-content/uploads/2023/08/OIP.jpg
41.1120953,20.795694,memorial,Kosta Abrash,Kosta Abrash 6000 Ohrid North Macedonia,Ohrid,https://mk.wikipedia.org/wiki/%D0%9A%D0%BE%D1%81%D1%82%D0%B0_%D0%90%D0%B1%D1%80%D0%B0%D1%88#/media/%D0%9F%D0%BE%D0%B4%D0%B0%D1%82%D0%BE%D1%82%D0%B5%D0%BA%D0%B0:Kosta_Abra%C5%A1_Monument.JPG
41.1124032,20.8071328,memorial,Henry Dunant,Dimitar Vlahov 6000 Ohrid North Macedonia,Ohrid,https://lh5.googleusercontent.com/p/AF1QipMxpM-aWbOOxBa2fbel8_X9GUYKNOUp0ZPWNGtH=w408-h544-k-no
41.2754595,21.3684104,monument,Ljube Grujoski,Ljube Grujoski 7525 Pashino Ruvci North Macedonia,Pashino Ruvci,https://upload.wikimedia.org/wikipedia/commons/thumb/7/7d/%D0%A1%D0%BF%D0%BE%D0%BC%D0%B5%D0%BD%D0%B8%D0%BA_%D0%BD%D0%B0_%D0%89%D1%83%D0%B1%D0%B5_%D0%93%D1%80%D1%83%D1%98%D0%BE%D1%81%D0%BA%D0%B8_%D0%B2%D0%BE_%D0%9F%D0%B0%D1%88%D0%B8%D0%BD%D0%BE_%D0%A0%D1%83%D0%B2%D1%86%D0%B8.jpg/675px-%D0%A1%D0%BF%D0%BE%D0%BC%D0%B5%D0%BD%D0%B8%D0%BA_%D0%BD%D0%B0_%D0%89%D1%83%D0%B1%D0%B5_%D0%93%D1%80%D1%83%D1%98%D0%BE%D1%81%D0%BA%D0%B8_%D0%B2%D0%BE_%D0%9F%D0%B0%D1%88%D0%B8%D0%BD%D0%BE_%D0%A0%D1%83%D0%B2%D1%86%D0%B8.jpg
41.1857198,22.7227512,monument,Spomenik na Dojrana,Kaj 5 ti Noemvri 1487 Star Dojran North Macedonia,Star Dojran,https://live.staticflickr.com/3016/2885248809_547ef59af0_z.jpg
41.1825947,22.7233826,monument,Cheshma Sveta Petka,Marshal Tito 1487 Star Dojran North Macedonia,Star Dojran,https://scontent.fskp4-1.fna.fbcdn.net/v/t39.30808-6/298985038_196030362848950_7456960040750065347_n.jpg?stp=dst-jpg_p960x960&_nc_cat=102&ccb=1-7&_nc_sid=dd5e9f&_nc_ohc=qdsm60Xr-RgAX8vDmla&_nc_ht=scontent.fskp4-1.fna&oh=00_AfCdkpGlZ9V9ddchHBSAZ5qwtlpe3zcW8mGsgOUrbxuqJw&oe=6578D343
41.3724643,21.5605466,memorial,Dabnichki Masakr,Dabnichka 7510 Prilep North Macedonia,Prilep,https://meta.mk/wp-content/uploads/2019/11/spomenik-dabnica-1941.jpg
41.2064953,21.6536957,tomb,Tole Pasha,R1107 Dunje North Macedonia,Dunje,https://upload.wikimedia.org/wikipedia/commons/4/46/Tole_Pasha-grob-Krushevica.JPG
42.022416,21.5476216,memorial,Aco Angelovski,Metodija Andonov Chento 1041 Brnjarci North Macedonia,Brnjarci,https://www.mthe.gov.sl/Photo/News/news-noImage.jpg
42.0225556,21.5480468,memorial,Kiril Petrushevski,Metodija Andonov Chento 1041 Brnjarci North Macedonia,Brnjarci,https://www.mthe.gov.sl/Photo/News/news-noImage.jpg
42.0227044,21.5486015,memorial,Erol Gotak,Metodija Andonov Chento 1041 Brnjarci North Macedonia,Brnjarci,https://www.mthe.gov.sl/Photo/News/news-noImage.jpg
41.9764851,21.1660504,memorial,Nane Naumoski,Masakr kaj Karpalak Rogle North Macedonia,Rogle,https://libertas.mk/wp-content/uploads/2020/08/vo-prilep-pochnuvaat-chestvuva-ata-za-karpalak.jpg
41.977847,21.1773385,memorial,Sasho Kitanoski,Masakr kaj Karpalak Rogle North Macedonia,Rogle,https://libertas.mk/wp-content/uploads/2020/08/vo-prilep-pochnuvaat-chestvuva-ata-za-karpalak.jpg
41.97753,21.1679024,memorial,Branko Sekuloski,Masakr kaj Karpalak Rogle North Macedonia,Rogle,https://libertas.mk/wp-content/uploads/2020/08/vo-prilep-pochnuvaat-chestvuva-ata-za-karpalak.jpg
41.9781971,21.1745241,memorial,Goran Minoski,Masakr kaj Karpalak Rogle North Macedonia,Rogle,https://libertas.mk/wp-content/uploads/2020/08/vo-prilep-pochnuvaat-chestvuva-ata-za-karpalak.jpg
41.977893,21.1713626,memorial,Marko Despotoski,Masakr kaj Karpalak Rogle North Macedonia,Rogle,https://libertas.mk/wp-content/uploads/2020/08/vo-prilep-pochnuvaat-chestvuva-ata-za-karpalak.jpg
41.9767167,21.1675604,memorial,Erdovan Shabanoski,Masakr kaj Karpalak Rogle North Macedonia,Rogle,https://libertas.mk/wp-content/uploads/2020/08/vo-prilep-pochnuvaat-chestvuva-ata-za-karpalak.jpg
41.9772958,21.1694976,memorial,Ljube Grujoski,Masakr kaj Karpalak Rogle North Macedonia,Rogle,https://libertas.mk/wp-content/uploads/2020/08/vo-prilep-pochnuvaat-chestvuva-ata-za-karpalak.jpg
41.9770406,21.1717935,memorial,Darko Veljanoski,Masakr kaj Karpalak Rogle North Macedonia,Rogle,https://libertas.mk/wp-content/uploads/2020/08/vo-prilep-pochnuvaat-chestvuva-ata-za-karpalak.jpg
41.9767893,21.1747438,memorial,Vebi Rushitoski,Masakr kaj Karpalak Rogle North Macedonia,Rogle,https://libertas.mk/wp-content/uploads/2020/08/vo-prilep-pochnuvaat-chestvuva-ata-za-karpalak.jpg
41.977042,21.1770879,memorial,Pece Sekuloski,Masakr kaj Karpalak Rogle North Macedonia,Rogle,https://libertas.mk/wp-content/uploads/2020/08/vo-prilep-pochnuvaat-chestvuva-ata-za-karpalak.jpg
41.3575814,21.6256855,memorial,Karpalak,R1101 Lenishte North Macedonia,Lenishte,https://libertas.mk/wp-content/uploads/2020/08/vo-prilep-pochnuvaat-chestvuva-ata-za-karpalak.jpg
41.4014262,22.0284286,memorial,Masakr vo Vatasha,R1107 1430 Kavadarci North Macedonia,Kavadarci,https://upload.wikimedia.org/wikipedia/commons/thumb/9/99/Mokliste_spomenik.jpg/1920px-Mokliste_spomenik.jpg
41.3428704,21.5583071,tomb,Pere Toshev,Aleksandar Makedonski 7500 Prilep North Macedonia,Prilep,https://mia.mk/images/20230504135240_big_730x400_85.webp
41.4436592,20.8721449,memorial,Duko Tasev,Selska Pateka Judovo North Macedonia,Judovo,https://www.mthe.gov.sl/Photo/News/news-noImage.jpg
41.4831122,20.9229426,monument,Goce Delchev,Goce Delchev 6261 Drugovo North Macedonia,Drugovo,https://upload.wikimedia.org/wikipedia/commons/thumb/6/68/%D0%92%D0%B8%D0%BA%D0%B8%D0%B5%D0%BA%D1%81%D0%BF%D0%B5%D0%B4%D0%B8%D1%86%D0%B8%D1%98%D0%B0_%D0%B2%D0%BE_%D0%9A%D0%BE%D0%BF%D0%B0%D1%87%D0%BA%D0%B0_332.jpg/800px-%D0%92%D0%B8%D0%BA%D0%B8%D0%B5%D0%BA%D1%81%D0%BF%D0%B5%D0%B4%D0%B8%D1%86%D0%B8%D1%98%D0%B0_%D0%B2%D0%BE_%D0%9A%D0%BE%D0%BF%D0%B0%D1%87%D0%BA%D0%B0_332.jpg
41.483575,20.9222623,monument,Hristo Uzunov,Goce Delchev 6261 Drugovo North Macedonia,Drugovo,https://mk.wikipedia.org/wiki/%D0%9E%D0%A3_%E2%80%9E%D0%A5%D1%80%D0%B8%D1%81%D1%82%D0%BE_%D0%A3%D0%B7%D1%83%D0%BD%D0%BE%D0%B2%E2%80%9C_-_%D0%94%D1%80%D1%83%D0%B3%D0%BE%D0%B2%D0%BE#/media/%D0%9F%D0%BE%D0%B4%D0%B0%D1%82%D0%BE%D1%82%D0%B5%D0%BA%D0%B0:%D0%92%D0%B8%D0%BA%D0%B8%D0%B5%D0%BA%D1%81%D0%BF%D0%B5%D0%B4%D0%B8%D1%86%D0%B8%D1%98%D0%B0_%D0%B2%D0%BE_%D0%9A%D0%BE%D0%BF%D0%B0%D1%87%D0%BA%D0%B0_333.jpg
41.1150206,20.7949057,city_gate,Gorna Porta,Ilindenska 6000 Ohrid North Macedonia,Ohrid,https://assets.bucketlistly.blog/sites/5adf778b6eabcc00190b75b1/content_entry5b155bed5711a8176e9f9783/6445deccdafc5400027f66c2/files/ohrid-north-macedonia-travel-photo-20230423084332476-main-image.jpg
41.4528994,20.9658462,battlefield,Bitkata na Gjurgjejca,Pateka kon s.Kladnik / repetitor 6250 Karbunica North Macedonia,Karbunica,https://novamakedonija.com.mk/wp-content/uploads/2020/08/bitka.jpg
41.8646892,21.942062,monument,Sv. Nikola,Ploshtad Ilinden 2220 Sveti Nikole North Macedonia,Sveti Nikole,https://upload.wikimedia.org/wikipedia/commons/thumb/a/a2/Sveti_Nikole_43.JPG/1280px-Sveti_Nikole_43.JPG
41.8644645,21.9410121,monument,Lazar Kolishevski,Monument of Lazar Kolishevski Ploshtad Ilinden 2220 Sveti Nikole North Macedonia,Sveti Nikole,https://upload.wikimedia.org/wikipedia/commons/thumb/a/ae/Lazar_Kolishevski_monument.jpg/675px-Lazar_Kolishevski_monument.jpg
41.8627557,21.9386585,memorial,Sv. Ilija,Angel Trajchev 2220 Sveti Nikole North Macedonia,Sveti Nikole,https://www.mthe.gov.sl/Photo/News/news-noImage.jpg
41.9156602,22.412778,monument,Nikola Karev,Kej na revolucijata 2300 Kochani North Macedonia,Kochani,https://upload.wikimedia.org/wikipedia/commons/thumb/5/56/Nikola_karev_kocani.JPG/1187px-Nikola_karev_kocani.JPG
41.3464944,21.5629735,memorial,Kire Gavriloski-Jane / Krume Volnaroski-Kolja,Spase Temelkoski 7510 Prilep North Macedonia,Prilep,https://upload.wikimedia.org/wikipedia/commons/thumb/5/57/Gavriloski%2C_Volnaroski_-_spomenik%2C_Prilep.jpg/800px-Gavriloski%2C_Volnaroski_-_spomenik%2C_Prilep.jpg
41.3421058,21.5572532,memorial,Aleksandar Makedonski,Aleksandar Makedonski 7500 Prilep North Macedonia,Prilep,https://upload.wikimedia.org/wikipedia/commons/thumb/d/de/Prilep_Aleksander.jpg/1170px-Prilep_Aleksander.jpg
41.3761727,21.2464617,memorial,Miroslav Joksimovikj,Nikola Karev 7550 Krushevo North Macedonia,Krushevo,https://streetviewpixels-pa.googleapis.com/v1/thumbnail?panoid=ZTgaww3ZJunskX7CHdonmw&cb_client=search.gws-prod.gps&w=408&h=240&yaw=173.11557&pitch=0&thumbfov=100
41.3653786,21.2488407,monument,Kica Petreski,Kocha Milenku 7550 Krushevo North Macedonia,Krushevo,https://www.mthe.gov.sl/Photo/News/news-noImage.jpg
41.366045,20.6489384,memorial,1. Brigada,Nace Nikoloski R2243 Lokov North Macedonia,Lokov,https://upload.wikimedia.org/wikipedia/commons/thumb/7/75/%D0%A1%D0%BF%D0%BE%D0%BC%D0%B5%D0%BD%D0%B8%D0%BA_%D0%B2%D0%BE_%D1%81%D0%B5%D0%BB%D0%BE%D1%82%D0%BE_%D0%9B%D0%BE%D0%BA%D0%BE%D0%B2.jpg/1280px-%D0%A1%D0%BF%D0%BE%D0%BC%D0%B5%D0%BD%D0%B8%D0%BA_%D0%B2%D0%BE_%D1%81%D0%B5%D0%BB%D0%BE%D1%82%D0%BE_%D0%9B%D0%BE%D0%BA%D0%BE%D0%B2.jpg
41.9998632,21.4292436,monument,Osloboditelite na Skopje,Bulevar Ilinden 1111 Skopje North Macedonia,Skopje,https://the-passenger.de/wp-content/uploads/2023/06/img_8782-2000x1200.jpg
42.0673767,20.9185104,monument,Vejce,Unnamed road Vejce North Macedonia,Vejce,https://en.netpress.com.mk/wp-content/uploads/2023/05/Vejce-ploca-levica-750x430-696x399-1.jpg
41.9988251,21.4506665,memorial,General Mihailo Apostolski,Belasica 1001 Skopje North Macedonia,Skopje,https://upload.wikimedia.org/wikipedia/commons/thumb/6/61/Mihailo_Apostolski_-_spomenik_Skopje.jpg/505px-Mihailo_Apostolski_-_spomenik_Skopje.jpg?20190519095427
41.9960184,21.4412009,monument,Krste Petkov Misirkov,Kej Dimitar Vlahov 1001 Skopje North Macedonia,Skopje,https://upload.wikimedia.org/wikipedia/commons/thumb/4/46/Misirkov_statue_on_Pella_Square.jpg/800px-Misirkov_statue_on_Pella_Square.jpg
41.9960802,21.4408764,monument,Blazhe Koneski,Bulevar Krste Petkov Misirkov 1001 Skopje North Macedonia,Skopje,https://www.slobodenpecat.mk/wp-content/uploads/2023/12/web-Blaze-Koneski-MANU-01-%D1%84%D0%BE%D1%82%D0%BE%D0%B3%D1%80%D0%B0%D1%84%D0%B8%D1%98%D0%B0-%D0%94%D1%80%D0%B0%D0%B3%D0%B0%D0%BD-%D0%9C%D0%B8%D1%82%D1%80%D0%B5%D1%81%D0%BA%D0%B8.jpg
41.0108476,21.3208996,place_of_worship,Sv. Georgij,Kanalka 1 7000 Lavci North Macedonia,Lavci,https://www.mthe.gov.sl/Photo/News/news-noImage.jpg
41.1119818,20.799333,monument,Fakjach na chesniot krst,Car Samoil 6000 Ohrid North Macedonia,Ohrid,https://dynamic-media-cdn.tripadvisor.com/media/photo-o/14/05/c8/de/a-memory.jpg?w=500&h=-1&s=1
41.9945304,21.4326511,monument,Pavel Shatev,11-ti Oktomvri 1111 Skopje North Macedonia,Skopje,https://live.staticflickr.com/65535/52592443160_58d5eef44e_z.jpg
41.993726,21.4332709,memorial,Nevena Georgieva-Dunja,11-ti Oktomvri 1111 Skopje North Macedonia,Skopje,https://upload.wikimedia.org/wikipedia/commons/thumb/5/5c/%D0%A1%D0%BF%D0%BE%D0%BC%D0%B5%D0%BD_%D0%BE%D0%B1%D0%B5%D0%BB%D0%B5%D0%B6%D1%98%D0%B0_%D0%B7%D0%B0_%D0%9D%D0%B5%D0%B2%D0%B5%D0%BD%D0%B0_%D0%93%D0%B5%D0%BE%D1%80%D0%B3%D0%B8%D0%B5%D0%B2%D0%B0-%D0%94%D1%83%D1%9A%D0%B0_%D0%B2%D0%BE_%D0%96%D0%B5%D0%BD%D0%B0_%D0%9F%D0%B0%D1%80%D0%BA.jpg/1200px-%D0%A1%D0%BF%D0%BE%D0%BC%D0%B5%D0%BD_%D0%BE%D0%B1%D0%B5%D0%BB%D0%B5%D0%B6%D1%98%D0%B0_%D0%B7%D0%B0_%D0%9D%D0%B5%D0%B2%D0%B5%D0%BD%D0%B0_%D0%93%D0%B5%D0%BE%D1%80%D0%B3%D0%B8%D0%B5%D0%B2%D0%B0-%D0%94%D1%83%D1%9A%D0%B0_%D0%B2%D0%BE_%D0%96%D0%B5%D0%BD%D0%B0_%D0%9F%D0%B0%D1%80%D0%BA.jpg?20161125201117
42.0640097,21.0288552,monument,Gjoko Lazarevski,R1203 1200 Leshok North Macedonia,Leshok,https://scontent.fskp4-1.fna.fbcdn.net/v/t1.6435-9/111748856_747085786121877_405122173572533052_n.jpg?_nc_cat=111&ccb=1-7&_nc_sid=dd63ad&_nc_ohc=Qie5ipZcfO4AX9vufXr&_nc_ht=scontent.fskp4-1.fna&oh=00_AfCJXjjy-nWD-hBgjr-i9wiXD-X1QD7RfbAuCB14jUnbBg&oe=659C21BF
42.0700178,21.027212,tomb,Teodorit,Star Leshochki manastir R1203 1200 Leshok North Macedonia,Leshok,https://lh5.googleusercontent.com/p/AF1QipPB5GqBAS4Ak_EelDytZbejFq06nQotpkFZUQMy=w533-h240-k-no
42.0669654,21.0282911,tomb,Kiril Pejchinovikj-Tetoec,R1203 1200 Leshok North Macedonia,Leshok,https://upload.wikimedia.org/wikipedia/commons/thumb/d/de/Grobot_na_Kiril_Pejchinovik%2C_Leshochki_manastir.JPG/1200px-Grobot_na_Kiril_Pejchinovik%2C_Leshochki_manastir.JPG?20141026200253
42.0668701,21.0285176,monument,Zaginati Leshochani vo vojnite 1903-2001,Nov Leshochki manastir R1203 1200 Leshok North Macedonia,Leshok,https://upload.wikimedia.org/wikipedia/commons/thumb/6/6d/Ruski_krst_%28Le%C5%A1o%C4%8Dki_manastir%29_%283%29.jpg/800px-Ruski_krst_%28Le%C5%A1o%C4%8Dki_manastir%29_%283%29.jpg
41.1141534,20.798276,memorial,Nada Fileva,11-ti Oktomvri 6000 Ohrid North Macedonia,Ohrid,https://www.mthe.gov.sl/Photo/News/news-noImage.jpg
42.0043082,21.4185013,memorial,Dane Kraptzhev,Albert Ajnshtajn 1000 Skopje North Macedonia,Skopje,https://upload.wikimedia.org/wikipedia/commons/thumb/4/49/Dane_Krapcev.JPG/800px-Dane_Krapcev.JPG
41.9918182,21.4296159,memorial,Atentat na Kiro Gligorov,Ulica Makedonija 1111 Skopje North Macedonia,Skopje,https://www.mthe.gov.sl/Photo/News/news-noImage.jpg
41.3643261,21.6070578,wayside_shrine,Sv. Petka,R1101 7510 Lenishte North Macedonia,Lenishte,https://www.mthe.gov.sl/Photo/News/news-noImage.jpg
41.9135927,22.4105061,monument,Brakjata Prosvetiteli Sv. Kiril i Metodij,Gligor Apostolov Gocho 2300 Kochani North Macedonia,Kochani,https://lh3.googleusercontent.com/p/AF1QipNU_xRm8Xvw7UYraaEvSExfGAv1bAIqS_tUKfZz=s1360-w1360-h1020
41.9143473,22.410612,monument,Ljupcho Santov,Stevo Teodosievski 2300 Kochani North Macedonia,Kochani,https://kocani.gov.mk/wp-content/uploads/2021/09/RLJ.jpg
41.204511,21.4572557,tomb,Bratska grobnica,R2340 7512 Klepach North Macedonia,Klepach,https://www.mthe.gov.sl/Photo/News/news-noImage.jpg
41.4286415,21.6200758,tomb,Igumenija Katerina,R1312 Prisad North Macedonia,Prisad,https://www.mthe.gov.sl/Photo/News/news-noImage.jpg
41.8768098,22.5027575,castle,Vinichko Kale,30 Avgust 2310 Vinica North Macedonia,Vinica,https://mk.wikipedia.org/wiki/%D0%92%D0%B8%D0%BD%D0%B8%D1%87%D0%BA%D0%BE_%D0%9A%D0%B0%D0%BB%D0%B5#/media/%D0%9F%D0%BE%D0%B4%D0%B0%D1%82%D0%BE%D1%82%D0%B5%D0%BA%D0%B0:%D0%92%D0%B8%D0%BD%D0%B8%D1%87%D0%BA%D0%BE_%D0%9A%D0%B0%D0%BB%D0%B5_03.jpg
41.9964125,21.4328484,memorial,Solunski atentatori i Gemidzhii,Kej 13-ti Noemvri 1111 Skopje North Macedonia,Skopje,https://mk.wikipedia.org/wiki/%D0%A1%D0%BE%D0%BB%D1%83%D0%BD%D1%81%D0%BA%D0%B8_%D0%B0%D1%82%D0%B5%D0%BD%D1%82%D0%B0%D1%82%D0%B8#/media/%D0%9F%D0%BE%D0%B4%D0%B0%D1%82%D0%BE%D1%82%D0%B5%D0%BA%D0%B0:Gemidzii_-_Skopje.jpg
41.9538189,21.288822,ruins,Sveta Troica i Sveti Gjorgjija,Sveta Nedela Matka North Macedonia,Matka,https://mk.wikipedia.org/wiki/%D0%A6%D1%80%D0%BA%D0%B2%D0%B0_%E2%80%9E%D0%A1%D0%B2._%D0%A1%D0%BF%D0%B0%D1%81%E2%80%9C_-_%D0%9C%D0%B0%D1%82%D0%BA%D0%B0#/media/%D0%9F%D0%BE%D0%B4%D0%B0%D1%82%D0%BE%D1%82%D0%B5%D0%BA%D0%B0:Sveta_Troica-Matka.jpg
41.8117124,21.1617392,archaeological_site,Golema Pesh,R1106 Zdunje North Macedonia,Zdunje,https://umno.mk/wp-content/uploads/2021/09/golema-pesht-1.jpg
